idElset,classificationMarking,satNo,epoch,meanMotion,idOnOrbit,uct,eccentricity,inclination,raan,argOfPerigee,meanAnomaly,bStar,meanMotionDot,meanMotionDDot,semiMajorAxis,period,apogee,perigee,origObjectId,line1,line2,createdAt,createdBy,source,dataMode,ephemType,origNetwork,elset
d3f8280e-1dc5-4675-bc6a-303855668682,U//PR-EXO-ELSETS,40424,2025-08-09T19:37:35.109300Z,1.002623071634287,40424,False,0.0001815094060415313,0.00253240144129485,155.2675030592777,318.4969435796891,136.1827449855655,0.0,0.0,0.0,42167.39120443859,1436.232658852327,42175.04498257043,42159.73742630675,40424,1 40424U 15010A   25221.81776747 +.00000000 +00000+0 +00000+0 2 99999,2 40424   0.0025 155.2675 0001815 318.4969 136.1827  1.00262307000008,2025-08-09T20:09:30.608Z,system.exo,EXO,REAL,2,OPS1,"{'NORAD_ID': 40424, 'classification': 'U', 'COSPAR_ID': '15010A', 'BC': 0.0, 'n_ddot': 0.0, 'B_star': 0.0, 'ephemeris_type': 2, 'elset_num': 9999, 'inclination': 0.0025, 'RAAN': 155.2675, 'eccentricity': 0.0001815, 'perigee': 318.4969, 'mean_anomaly': 136.1827, 'mean_motion': 1.00262307, 'rev_num': 0, 'line1': '1 40424U 15010A   25221.81776747 +.00000000 +00000+0 +00000+0 2 99999', 'line2': '2 40424   0.0025 155.2675 0001815 318.4969 136.1827  1.00262307000008', 'epoch': datetime.datetime(2025, 8, 9, 19, 37, 35, 109408)}"
58fc6ce5-96f4-4a7b-9583-a0bcdadffcae,U//PR-EXO-ELSETS,21140,2025-08-09T18:55:33.176006Z,0.9844843066448544,21140,False,0.001043988810008291,14.75567906042614,352.2245653927301,242.9662002281167,130.9547359986239,0.0,0.0,0.0,42683.75948530607,1462.694722791015,42728.32085257782,42639.19811803433,21140,1 21140U 91015B   25221.78857843 +.00000000 +00000+0 +00000+0 2 99995,2 21140  14.7557 352.2246 0010439 242.9662 130.9547  0.98448430000000,2025-08-09T20:24:31.719Z,system.exo,EXO,REAL,2,OPS1,"{'NORAD_ID': 21140, 'classification': 'U', 'COSPAR_ID': '91015B', 'BC': 0.0, 'n_ddot': 0.0, 'B_star': 0.0, 'ephemeris_type': 2, 'elset_num': 9999, 'inclination': 14.7557, 'RAAN': 352.2246, 'eccentricity': 0.0010439, 'perigee': 242.9662, 'mean_anomaly': 130.9547, 'mean_motion': 0.9844843, 'rev_num': 0, 'line1': '1 21140U 91015B   25221.78857843 +.00000000 +00000+0 +00000+0 2 99995', 'line2': '2 21140  14.7557 352.2246 0010439 242.9662 130.9547  0.98448430000000', 'epoch': datetime.datetime(2025, 8, 9, 18, 55, 33, 176352)}"
f983eb47-7bd9-47ba-9b0d-4b02ef7323b9,U//PR-EXO-ELSETS,27877,2025-08-09T19:26:48.653904Z,1.007346434985279,27877,False,0.0006091486828397909,13.14473808094718,14.72330359279107,300.0229139045342,62.33919949096715,0.0,0.0,0.0,42035.47506077286,1429.498283796521,42061.08091503868,42009.86920650705,27877,1 27877U 03040C   25221.81028535 +.00000000 +00000+0 +00000+0 2 99991,2 27877  13.1447  14.7233 0006091 300.0229  62.3392  1.00734643000008,2025-08-09T21:12:30.225Z,system.exo,EXO,REAL,2,OPS1,"{'NORAD_ID': 27877, 'classification': 'U', 'COSPAR_ID': '03040C', 'BC': 0.0, 'n_ddot': 0.0, 'B_star': 0.0, 'ephemeris_type': 2, 'elset_num': 9999, 'inclination': 13.1447, 'RAAN': 14.7233, 'eccentricity': 0.0006091, 'perigee': 300.0229, 'mean_anomaly': 62.3392, 'mean_motion': 1.00734643, 'rev_num': 0, 'line1': '1 27877U 03040C   25221.81028535 +.00000000 +00000+0 +00000+0 2 99991', 'line2': '2 27877  13.1447  14.7233 0006091 300.0229  62.3392  1.00734643000008', 'epoch': datetime.datetime(2025, 8, 9, 19, 26, 48, 654240)}"
da127042-05f6-4d88-a1d8-4bc3a5c52545,U//PR-EXO-ELSETS,45027,2025-08-09T20:34:44.606208Z,1.002650529011923,45027,False,0.000183475571186126,0.05820094255488605,97.00624152705471,89.61089028260287,87.84514381211146,0.0,0.0,0.0,42166.62137072606,1436.193327917623,42174.35791566704,42158.88482578508,45027,1 45027U 20005B   25221.85746072 +.00000000 +00000+0 +00000+0 2 99995,2 45027   0.0582  97.0062 0001834  89.6109  87.8451  1.00265052000002,2025-08-09T21:30:31.528Z,system.exo,EXO,REAL,2,OPS1,"{'NORAD_ID': 45027, 'classification': 'U', 'COSPAR_ID': '20005B', 'BC': 0.0, 'n_ddot': 0.0, 'B_star': 0.0, 'ephemeris_type': 2, 'elset_num': 9999, 'inclination': 0.0582, 'RAAN': 97.0062, 'eccentricity': 0.0001834, 'perigee': 89.6109, 'mean_anomaly': 87.8451, 'mean_motion': 1.00265052, 'rev_num': 0, 'line1': '1 45027U 20005B   25221.85746072 +.00000000 +00000+0 +00000+0 2 99995', 'line2': '2 45027   0.0582  97.0062 0001834  89.6109  87.8451  1.00265052000002', 'epoch': datetime.datetime(2025, 8, 9, 20, 34, 44, 606208)}"
1ab19e79-ab1c-4ca2-aa83-290d5a553e67,U//PR-EXO-ELSETS,44334,2025-08-09T20:34:50.496339Z,1.002676262845256,44334,False,0.0003486940660886564,0.07517332528469371,187.3615947525036,296.9697745008931,149.9746049119431,0.0,0.0,0.0,42165.89989262563,1436.156467805238,42180.60289170947,42151.19689354179,44334,1 44334U 19034B   25221.85752889 +.00000000 +00000+0 +00000+0 2 99998,2 44334   0.0752 187.3616 0003486 296.9698 149.9746  1.00267626000006,2025-08-09T21:21:31.576Z,system.exo,EXO,REAL,2,OPS1,"{'NORAD_ID': 44334, 'classification': 'U', 'COSPAR_ID': '19034B', 'BC': 0.0, 'n_ddot': 0.0, 'B_star': 0.0, 'ephemeris_type': 2, 'elset_num': 9999, 'inclination': 0.0752, 'RAAN': 187.3616, 'eccentricity': 0.0003486, 'perigee': 296.9698, 'mean_anomaly': 149.9746, 'mean_motion': 1.00267626, 'rev_num': 0, 'line1': '1 44334U 19034B   25221.85752889 +.00000000 +00000+0 +00000+0 2 99998', 'line2': '2 44334   0.0752 187.3616 0003486 296.9698 149.9746  1.00267626000006', 'epoch': datetime.datetime(2025, 8, 9, 20, 34, 50, 496096)}"
d22e7077-0de8-41e5-abfd-8359f6ece06a,U//PR-EXO-ELSETS,39163,2025-08-09T20:34:50.496339Z,1.002689563763372,39163,False,0.0002427217526531967,0.06907091366428171,352.5360264048581,68.36833916752593,213.3884534698796,0.0,0.0,0.0,42165.52699793522,1436.137416844433,42175.7614885497,42155.29250732073,39163,1 39163U 13022A   25221.85752889 +.00000000 +00000+0 +00000+0 2 99993,2 39163   0.0691 352.5360 0002427  68.3683 213.3885  1.00268956000000,2025-08-09T21:03:31.630Z,system.exo,EXO,REAL,2,OPS1,"{'NORAD_ID': 39163, 'classification': 'U', 'COSPAR_ID': '13022A', 'BC': 0.0, 'n_ddot': 0.0, 'B_star': 0.0, 'ephemeris_type': 2, 'elset_num': 9999, 'inclination': 0.0691, 'RAAN': 352.536, 'eccentricity': 0.0002427, 'perigee': 68.3683, 'mean_anomaly': 213.3885, 'mean_motion': 1.00268956, 'rev_num': 0, 'line1': '1 39163U 13022A   25221.85752889 +.00000000 +00000+0 +00000+0 2 99993', 'line2': '2 39163   0.0691 352.5360 0002427  68.3683 213.3885  1.00268956000000', 'epoch': datetime.datetime(2025, 8, 9, 20, 34, 50, 496096)}"
b8fcc395-61a9-4693-8212-a24a2eddf2f0,U//PR-EXO-ELSETS,5851,2025-08-09T20:03:28.647121Z,0.9977835665290725,5851,False,0.0007849078809086478,0.424178291550821,257.0603542212614,7.100921631989274,2.10656626402194,0.0,0.0,0.0,42303.62963111865,1443.198754023619,42336.83408340715,42270.42517883014,5851,1 05851U 72010A   25221.83574823 +.00000000 +00000+0 +00000+0 2 99990,2 05851   0.4242 257.0604 0007849   7.1009   2.1066  0.99778356000001,2025-08-09T20:48:30.034Z,system.exo,EXO,REAL,2,OPS1,"{'NORAD_ID': 5851, 'classification': 'U', 'COSPAR_ID': '72010A', 'BC': 0.0, 'n_ddot': 0.0, 'B_star': 0.0, 'ephemeris_type': 2, 'elset_num': 9999, 'inclination': 0.4242, 'RAAN': 257.0604, 'eccentricity': 0.0007849, 'perigee': 7.1009, 'mean_anomaly': 2.1066, 'mean_motion': 0.99778356, 'rev_num': 0, 'line1': '1 05851U 72010A   25221.83574823 +.00000000 +00000+0 +00000+0 2 99990', 'line2': '2 05851   0.4242 257.0604 0007849   7.1009   2.1066  0.99778356000001', 'epoch': datetime.datetime(2025, 8, 9, 20, 3, 28, 647072)}"
4aa49f53-37c6-4eb3-bf26-c65c9c0d4da6,U//PR-EXO-ELSETS,40984,2025-08-09T00:44:43.626522Z,1.00267176341913,40984,False,0.0001959298698877856,0.04109002296768448,268.5796272658063,221.1167489752379,249.2092411946286,0.0,0.0,0.0,42166.02603707065,1436.16291246656,42174.28762106578,42157.76445307552,40984,1 40984U 15060A   25221.03106049 +.00000000 +00000+0 +00000+0 2 99991,2 40984   0.0411 268.5796 0001959 221.1167 249.2092  1.00267176000008,2025-08-09T01:36:33.474Z,system.exo,EXO,REAL,2,OPS1,"{'NORAD_ID': 40984, 'classification': 'U', 'COSPAR_ID': '15060A', 'BC': 0.0, 'n_ddot': 0.0, 'B_star': 0.0, 'ephemeris_type': 2, 'elset_num': 9999, 'inclination': 0.0411, 'RAAN': 268.5796, 'eccentricity': 0.0001959, 'perigee': 221.1167, 'mean_anomaly': 249.2092, 'mean_motion': 1.00267176, 'rev_num': 0, 'line1': '1 40984U 15060A   25221.03106049 +.00000000 +00000+0 +00000+0 2 99991', 'line2': '2 40984   0.0411 268.5796 0001959 221.1167 249.2092  1.00267176000008', 'epoch': datetime.datetime(2025, 8, 9, 0, 44, 43, 626336)}"
7e0c5719-7b8e-4bd4-87c8-411df08bce5b,U//PR-EXO-ELSETS,36101,2025-08-09T00:44:43.626522Z,1.002686775130527,36101,False,0.0005902870896275058,0.05210138373789771,2.561288357496033,135.676192839656,241.1947511376515,0.0,0.0,0.0,42165.60517729753,1436.141410973078,42190.49498966002,42140.71536493504,36101,1 36101U 09065A   25221.03106049 +.00000000 +00000+0 +00000+0 2 99995,2 36101   0.0521   2.5613 0005902 135.6762 241.1948  1.00268677000000,2025-08-09T01:36:33.468Z,system.exo,EXO,REAL,2,OPS1,"{'NORAD_ID': 36101, 'classification': 'U', 'COSPAR_ID': '09065A', 'BC': 0.0, 'n_ddot': 0.0, 'B_star': 0.0, 'ephemeris_type': 2, 'elset_num': 9999, 'inclination': 0.0521, 'RAAN': 2.5613, 'eccentricity': 0.0005902, 'perigee': 135.6762, 'mean_anomaly': 241.1948, 'mean_motion': 1.00268677, 'rev_num': 0, 'line1': '1 36101U 09065A   25221.03106049 +.00000000 +00000+0 +00000+0 2 99995', 'line2': '2 36101   0.0521   2.5613 0005902 135.6762 241.1948  1.00268677000000', 'epoch': datetime.datetime(2025, 8, 9, 0, 44, 43, 626336)}"
